{
  "norad_id": 68477,
  "name": "TRANSPORTER-16 OBJECT BP",
  "history": [
    {
      "epoch": "2026-04-15T19:24:56.837088Z",
      "apogee_km": 596.3481136370756,
      "perigee_km": 593.0987606733615,
      "latitude_deg": -3.351508636485188e-05,
      "longitude_deg": -70.18285025414315,
      "height_km": 597.7785485477561,
      "semi_major_axis_km": 6972.860437155218,
      "eccentricity": 0.000233,
      "inclination_deg": 97.7484,
      "raan_deg": 65.0197,
      "arg_perigee_deg": 269.6111,
      "mean_anomaly_deg": 90.484,
      "mean_motion_rev_day": 14.91029729
    },
    {
      "epoch": "2026-04-16T19:34:30.235008Z",
      "apogee_km": 596.3233254276074,
      "perigee_km": 593.0739840125088,
      "latitude_deg": -1.0491368054024517e-05,
      "longitude_deg": -72.57569570405782,
      "height_km": 597.9276195638313,
      "semi_major_axis_km": 6972.835654720058,
      "eccentricity": 0.000233,
      "inclination_deg": 97.7488,
      "raan_deg": 66.0082,
      "arg_perigee_deg": 263.4664,
      "mean_anomaly_deg": 96.6289,
      "mean_motion_rev_day": 14.91037678
    },
    {
      "epoch": "2026-04-17T19:44:03.228576Z",
      "apogee_km": 596.2978152103915,
      "perigee_km": 593.0498799175957,
      "latitude_deg": -1.4176685880748345e-05,
      "longitude_deg": -74.96674875095984,
      "height_km": 598.0772461715666,
      "semi_major_axis_km": 6972.810847563993,
      "eccentricity": 0.0002329,
      "inclination_deg": 97.7492,
      "raan_deg": 66.9968,
      "arg_perigee_deg": 257.2172,
      "mean_anomaly_deg": 102.8786,
      "mean_motion_rev_day": 14.91045635
    },
    {
      "epoch": "2026-04-21T15:32:14.496864Z",
      "apogee_km": 596.1729162497304,
      "perigee_km": 592.9013375493887,
      "latitude_deg": 2.2083170794747863e-05,
      "longitude_deg": -12.02743040875576,
      "height_km": 598.5142277506128,
      "semi_major_axis_km": 6972.674126899559,
      "eccentricity": 0.0002346,
      "inclination_deg": 97.7501,
      "raan_deg": 70.7533,
      "arg_perigee_deg": 235.2126,
      "mean_anomaly_deg": 124.8872,
      "mean_motion_rev_day": 14.9108949
    },
    {
      "epoch": "2026-04-22T20:31:37.984800Z",
      "apogee_km": 596.2187324638835,
      "perigee_km": 592.7756457013147,
      "latitude_deg": 2.2711055841937804e-05,
      "longitude_deg": -86.87967104837139,
      "height_km": 598.6395921645103,
      "semi_major_axis_km": 6972.634189082599,
      "eccentricity": 0.0002469,
      "inclination_deg": 97.75,
      "raan_deg": 71.9395,
      "arg_perigee_deg": 230.3483,
      "mean_anomaly_deg": 129.7518,
      "mean_motion_rev_day": 14.91102301
    }
  ]
}